0 COSMOS 2251 DEB
1 35843U 93036ATR 13265.36183700  .00004278  00000-0  17012-2 0  2312
2 35843 074.0299 266.6995 0149464 276.3913 081.9101 14.23067259219289
0 COSMOS 2251 DEB
1 35843U 93036ATR 13271.33713774  .00006712  00000-0  26522-2 0  2328
2 35843 074.0253 255.9200 0150704 264.3897 094.5050 14.23155712220137
